[{"OBJECT_NAME":"EXO-0","OBJECT_ID":"2023-174DK","EPOCH":"2026-03-09T17:03:04.419648","MEAN_MOTION":15.32821991,"ECCENTRICITY":0.00098779,"INCLINATION":97.3864,"RA_OF_ASC_NODE":148.9039,"ARG_OF_PERICENTER":157.1125,"MEAN_ANOMALY":203.0559,"EPHEMERIS_TYPE":0,"CLASSIFICATION_TYPE":"U","NORAD_CAT_ID":59175,"ELEMENT_SET_NO":999,"REV_AT_EPOCH":12979,"BSTAR":0.00036716083,"MEAN_MOTION_DOT":0.00011582,"MEAN_MOTION_DDOT":0},{"OBJECT_NAME":"STARLINK-36154","OBJECT_ID":"2025-286Q","EPOCH":"2026-03-09T01:55:57.837792","MEAN_MOTION":15.30172711,"ECCENTRICITY":0.00012955,"INCLINATION":53.1618,"RA_OF_ASC_NODE":1.2703,"ARG_OF_PERICENTER":54.3015,"MEAN_ANOMALY":305.8106,"EPHEMERIS_TYPE":0,"CLASSIFICATION_TYPE":"U","NORAD_CAT_ID":66939,"ELEMENT_SET_NO":999,"REV_AT_EPOCH":1532,"BSTAR":0.0016559149,"MEAN_MOTION_DOT":0.00048966,"MEAN_MOTION_DDOT":0}]
